{
  "type": "FeatureCollection",
  "features": [
    {
      "type": "Feature",
      "properties": {
        "norad_id": 40938,
        "name": "BEIDOU-3S IGSO-2S (C56)",
        "group": "beidou",
        "lat": -6.949488314762589,
        "lon": 86.90172549363965,
        "alt_km": 35532.35887641492,
        "timestamp": "2025-12-17T17:50:19.515853+00:00",
        "meta_object_name": "BEIDOU-3S IGSO-2S (C56)",
        "meta_object_id": "2015-053A",
        "meta_epoch": "2025-12-16T17:14:16.267776",
        "meta_mean_motion": 1.00269476,
        "meta_eccentricity": 0.00605277,
        "meta_inclination": 49.5044,
        "meta_ra_of_asc_node": 260.9581,
        "meta_arg_of_pericenter": 188.7289,
        "meta_mean_anomaly": 350.4326,
        "meta_ephemeris_type": 0,
        "meta_classification_type": "U",
        "meta_norad_cat_id": 40938,
        "meta_element_set_no": 999,
        "meta_rev_at_epoch": 3752,
        "meta_bstar": 0,
        "meta_mean_motion_dot": -1.34e-06,
        "meta_mean_motion_ddot": 0,
        "tle_line1": "1 40938U 15053A   25350.71824384 -.00000134  00000+0  00000+0 0  9997",
        "tle_line2": "2 40938  49.5044 260.9581 0060527 188.7289 350.4326  1.00269476 37521"
      },
      "geometry": {
        "type": "Point",
        "coordinates": [
          86.90172549363965,
          -6.949488314762589
        ]
      }
    },
    {
      "type": "Feature",
      "properties": {
        "norad_id": 41434,
        "name": "BEIDOU-2 IGSO-6 (C13)",
        "group": "beidou",
        "lat": 39.70789144599112,
        "lon": 68.55352587481636,
        "alt_km": 36033.76418738216,
        "timestamp": "2025-12-17T17:50:19.515865+00:00",
        "meta_object_name": "BEIDOU-2 IGSO-6 (C13)",
        "meta_object_id": "2016-021A",
        "meta_epoch": "2025-12-11T15:29:12.615360",
        "meta_mean_motion": 1.00293077,
        "meta_eccentricity": 0.00608616,
        "meta_inclination": 59.9644,
        "meta_ra_of_asc_node": 39.9082,
        "meta_arg_of_pericenter": 229.9753,
        "meta_mean_anomaly": 135.9177,
        "meta_ephemeris_type": 0,
        "meta_classification_type": "U",
        "meta_norad_cat_id": 41434,
        "meta_element_set_no": 999,
        "meta_rev_at_epoch": 3560,
        "meta_bstar": 0,
        "meta_mean_motion_dot": -1.62e-06,
        "meta_mean_motion_ddot": 0,
        "tle_line1": "1 41434U 16021A   25345.64528490 -.00000162  00000+0  00000+0 0  9991",
        "tle_line2": "2 41434  59.9644  39.9082 0060861 229.9753 135.9177  1.00293077 35600"
      },
      "geometry": {
        "type": "Point",
        "coordinates": [
          68.55352587481636,
          39.70789144599112
        ]
      }
    },
    {
      "type": "Feature",
      "properties": {
        "norad_id": 41586,
        "name": "BEIDOU-2 G7 (C03)",
        "group": "beidou",
        "lat": 1.0836582542164932,
        "lon": 104.65511074059081,
        "alt_km": 35767.720047020186,
        "timestamp": "2025-12-17T17:50:19.515892+00:00",
        "meta_object_name": "BEIDOU-2 G7 (C03)",
        "meta_object_id": "2016-037A",
        "meta_epoch": "2025-12-17T07:00:07.338240",
        "meta_mean_motion": 1.00273126,
        "meta_eccentricity": 0.00050563,
        "meta_inclination": 1.768,
        "meta_ra_of_asc_node": 67.8201,
        "meta_arg_of_pericenter": 3.4641,
        "meta_mean_anomaly": 230.3643,
        "meta_ephemeris_type": 0,
        "meta_classification_type": "U",
        "meta_norad_cat_id": 41586,
        "meta_element_set_no": 999,
        "meta_rev_at_epoch": 506,
        "meta_bstar": 0,
        "meta_mean_motion_dot": -3.3e-06,
        "meta_mean_motion_ddot": 0,
        "tle_line1": "1 41586U 16037A   25351.29175160 -.00000330  00000+0  00000+0 0  9993",
        "tle_line2": "2 41586   1.7680  67.8201 0005056   3.4641 230.3643  1.00273126  5060"
      },
      "geometry": {
        "type": "Point",
        "coordinates": [
          104.65511074059081,
          1.0836582542164932
        ]
      }
    },
    {
      "type": "Feature",
      "properties": {
        "norad_id": 43001,
        "name": "BEIDOU-3 M1 (C19)",
        "group": "beidou",
        "lat": 50.58266816069767,
        "lon": 122.55619399413386,
        "alt_km": 21537.113781735567,
        "timestamp": "2025-12-17T17:50:19.515908+00:00",
        "meta_object_name": "BEIDOU-3 M1 (C19)",
        "meta_object_id": "2017-069A",
        "meta_epoch": "2025-12-17T02:31:31.300896",
        "meta_mean_motion": 1.86231373,
        "meta_eccentricity": 0.00093891,
        "meta_inclination": 56.5309,
        "meta_ra_of_asc_node": 69.0894,
        "meta_arg_of_pericenter": 302.653,
        "meta_mean_anomaly": 57.2803,
        "meta_ephemeris_type": 0,
        "meta_classification_type": "U",
        "meta_norad_cat_id": 43001,
        "meta_element_set_no": 999,
        "meta_rev_at_epoch": 5521,
        "meta_bstar": 0,
        "meta_mean_motion_dot": -7.5e-07,
        "meta_mean_motion_ddot": 0,
        "tle_line1": "1 43001U 17069A   25351.10522339 -.00000075  00000+0  00000+0 0  9993",
        "tle_line2": "2 43001  56.5309  69.0894 0009389 302.6530  57.2803  1.86231373 55214"
      },
      "geometry": {
        "type": "Point",
        "coordinates": [
          122.55619399413386,
          50.58266816069767
        ]
      }
    },
    {
      "type": "Feature",
      "properties": {
        "norad_id": 43002,
        "name": "BEIDOU-3 M2 (C20)",
        "group": "beidou",
        "lat": 52.023099700746066,
        "lon": -168.67455235124416,
        "alt_km": 21535.399140955982,
        "timestamp": "2025-12-17T17:50:19.515920+00:00",
        "meta_object_name": "BEIDOU-3 M2 (C20)",
        "meta_object_id": "2017-069B",
        "meta_epoch": "2025-12-17T01:02:46.646016",
        "meta_mean_motion": 1.86230935,
        "meta_eccentricity": 0.00064468,
        "meta_inclination": 56.5305,
        "meta_ra_of_asc_node": 69.1275,
        "meta_arg_of_pericenter": 330.7848,
        "meta_mean_anomaly": 29.2027,
        "meta_ephemeris_type": 0,
        "meta_classification_type": "U",
        "meta_norad_cat_id": 43002,
        "meta_element_set_no": 999,
        "meta_rev_at_epoch": 5520,
        "meta_bstar": 0,
        "meta_mean_motion_dot": -7.5e-07,
        "meta_mean_motion_ddot": 0,
        "tle_line1": "1 43002U 17069B   25351.04359544 -.00000075  00000+0  00000+0 0  9993",
        "tle_line2": "2 43002  56.5305  69.1275 0006446 330.7848  29.2027  1.86230935 55209"
      },
      "geometry": {
        "type": "Point",
        "coordinates": [
          -168.67455235124416,
          52.023099700746066
        ]
      }
    },
    {
      "type": "Feature",
      "properties": {
        "norad_id": 43107,
        "name": "BEIDOU-3 M7 (C27)",
        "group": "beidou",
        "lat": -52.922871340673815,
        "lon": -122.13426218154883,
        "alt_km": 21540.012972538432,
        "timestamp": "2025-12-17T17:50:19.515931+00:00",
        "meta_object_name": "BEIDOU-3 M7 (C27)",
        "meta_object_id": "2018-003A",
        "meta_epoch": "2025-12-13T13:33:25.741728",
        "meta_mean_motion": 1.86232202,
        "meta_eccentricity": 0.00026561,
        "meta_inclination": 54.4958,
        "meta_ra_of_asc_node": 308.7854,
        "meta_arg_of_pericenter": 70.3198,
        "meta_mean_anomaly": 289.6984,
        "meta_ephemeris_type": 0,
        "meta_classification_type": "U",
        "meta_norad_cat_id": 43107,
        "meta_element_set_no": 999,
        "meta_rev_at_epoch": 5389,
        "meta_bstar": 0,
        "meta_mean_motion_dot": -9.8e-07,
        "meta_mean_motion_ddot": 0,
        "tle_line1": "1 43107U 18003A   25347.56488127 -.00000098  00000+0  00000+0 0  9995",
        "tle_line2": "2 43107  54.4958 308.7854 0002656  70.3198 289.6984  1.86232202 53891"
      },
      "geometry": {
        "type": "Point",
        "coordinates": [
          -122.13426218154883,
          -52.922871340673815
        ]
      }
    },
    {
      "type": "Feature",
      "properties": {
        "norad_id": 43108,
        "name": "BEIDOU-3 M8 (C28)",
        "group": "beidou",
        "lat": -32.759558485005996,
        "lon": -78.73455213748866,
        "alt_km": 21522.442946925377,
        "timestamp": "2025-12-17T17:50:19.515942+00:00",
        "meta_object_name": "BEIDOU-3 M8 (C28)",
        "meta_object_id": "2018-003B",
        "meta_epoch": "2025-12-15T15:46:56.352288",
        "meta_mean_motion": 1.86230781,
        "meta_eccentricity": 0.00047156,
        "meta_inclination": 54.4868,
        "meta_ra_of_asc_node": 308.6954,
        "meta_arg_of_pericenter": 275.6738,
        "meta_mean_anomaly": 84.2592,
        "meta_ephemeris_type": 0,
        "meta_classification_type": "U",
        "meta_norad_cat_id": 43108,
        "meta_element_set_no": 999,
        "meta_rev_at_epoch": 5394,
        "meta_bstar": 0,
        "meta_mean_motion_dot": -9.9e-07,
        "meta_mean_motion_ddot": 0,
        "tle_line1": "1 43108U 18003B   25349.65759667 -.00000099  00000+0  00000+0 0  9999",
        "tle_line2": "2 43108  54.4868 308.6954 0004715 275.6738  84.2592  1.86230781 53940"
      },
      "geometry": {
        "type": "Point",
        "coordinates": [
          -78.73455213748866,
          -32.759558485005996
        ]
      }
    }
  ]
}